[Satellite]
VERSION=1.1
NAME=GOES 4 [-]
NICKNAME=GOES 4 [-]
TLE1=1 11964U 80074A   15051.22165505 -.00000247  00000-0  00000+0 0  9991
TLE2=2 11964  14.9056 344.1299 0030896 351.7285 200.2736  0.99230607 86603
